SatCatId,ObjectName,LaunchYear,OrbitalPeriod,LaunchMass,StatusCode,Inclination,Status,UcsData,OrbitClassEstimated,LaunchSiteCountry,Owner,UseType,Purpose,LaunchVehicleClass,TLE1,TLE2,MeanMotion,Eccentricity,OrbitClass
8591,COSMOS 789,1976,104.87,-1.0,UNK,82.98,Inactive,0,LEO,Russia,Russia/USSR,Unknown,Unknown,Unknown,1 08591U 76005A   25081.40992861  .00000126  00000+0  11916-3 0  9995,2 08591  82.9786 177.6408 0030718  36.4312  35.1047 13.73159917463140,13.73159917,0.0030718,LEO
16791,COSMOS 1758,1986,94.74,-1.0,UNK,82.46,Inactive,0,LEO,Russia,Russia/USSR,Unknown,Unknown,Unknown,1 16791U 86046A   25081.64676154  .00015739  00000+0  72597-3 0  9990,2 16791  82.4617 136.8116 0018295 122.5583 237.7422 15.19980187112786,15.19980187,0.0018295,LEO
8601,MOLNIYA 1-32,1976,720.05,-1.0,UNK,63.63,Inactive,0,MEO,Kazakhstan,Russia/USSR,Unknown,Unknown,Unknown,1 08601U 76006A   25080.40357339  .00001286  00000+0  00000+0 0  9998,2 08601  63.6316 180.1836 6730870 280.0089  15.5786  1.99986719 72827,1.99986719,0.673087,MEO
16798,COSMOS 1759,1986,104.72,-1.0,UNK,82.92,Inactive,0,LEO,Russia,Russia/USSR,Unknown,Unknown,Unknown,1 16798U 86047A   25081.52909789  .00000126  00000+0  11527-3 0  9998,2 16798  82.9241 164.1775 0025875  75.0075 297.3453 13.75151548944629,13.75151548,0.0025875,LEO
8607,COSMOS 791,1976,114.74,-1.0,UNK,74.06,Inactive,0,LEO,Russia,Russia/USSR,Unknown,Unknown,Unknown,1 08607U 76008A   25081.58969258  .00000004  00000+0  12372-3 0  9991,2 08607  74.0587  17.7109 0054853 190.2141 344.2393 12.55036454251654,12.55036454,0.0054853,LEO
8608,COSMOS 792,1976,115.16,-1.0,UNK,74.05,Inactive,0,LEO,Russia,Russia/USSR,Unknown,Unknown,Unknown,1 08608U 76008B   25081.54561140  .00000002  00000+0  11284-3 0  9995,2 08608  74.0543 224.3748 0034349  83.7216 345.9762 12.50412528243440,12.50412528,0.0034349,LEO
8609,COSMOS 793,1976,114.96,-1.0,UNK,74.05,Inactive,0,LEO,Russia,Russia/USSR,Unknown,Unknown,Unknown,1 08609U 76008C   25081.53565162 -.00000016  00000+0 -81865-6 0  9995,2 08609  74.0526 125.0504 0046967 323.8060 151.9113 12.52637141247387,12.52637141,0.0046967,LEO
8610,COSMOS 794,1976,115.37,-1.0,UNK,74.06,Inactive,0,LEO,Russia,Russia/USSR,Unknown,Unknown,Unknown,1 08610U 76008D   25081.11601747 -.00000007  00000+0  56469-4 0  9990,2 08610  74.0571 325.1915 0027201 216.7585 297.8861 12.48148934239282,12.48148934,0.0027201,LEO
8611,COSMOS 795,1976,115.59,-1.0,UNK,74.05,Inactive,0,LEO,Russia,Russia/USSR,Unknown,Unknown,Unknown,1 08611U 76008E   25081.40219753  .00000007  00000+0  15857-3 0  9999,2 08611  74.0528  69.7141 0019720 359.1492   0.9519 12.45785905234968,12.45785905,0.001972,LEO
8612,COSMOS 796,1976,115.83,-1.0,UNK,74.06,Inactive,0,LEO,Russia,Russia/USSR,Unknown,Unknown,Unknown,1 08612U 76008F   25081.52582700 -.00000006  00000+0  65957-4 0  9995,2 08612  74.0565 184.8322 0027558 165.7689 205.9930 12.43160398230418,12.43160398,0.0027558,LEO
8613,COSMOS 797,1976,116.07,-1.0,UNK,74.05,Inactive,0,LEO,Russia,Russia/USSR,Unknown,Unknown,Unknown,1 08613U 76008G   25081.61099431  .00000009  00000+0  18146-3 0  9999,2 08613  74.0534 293.6273 0032186 314.0818 101.0204 12.40680965226009,12.40680965,0.0032186,LEO
8614,COSMOS 798,1976,116.34,-1.0,UNK,74.05,Inactive,0,LEO,Russia,Russia/USSR,Unknown,Unknown,Unknown,1 08614U 76008H   25081.34104368  .00000005  00000+0  15252-3 0  9997,2 08614  74.0535  62.1268 0047024 106.7297  13.3677 12.37752193220673,12.37752193,0.0047024,LEO
8620,INTELSAT 4A-F2,1976,1444.55,-1.0,-,8.87,Inactive,0,GSO,USA,INTELSAT,Unknown,Unknown,Unknown,1 08620U 76010A   25081.19260634  .00000128  00000+0  00000+0 0  9996,2 08620   8.8692 307.1818 0005281 296.8936  50.6410  0.99684892616103,0.99684892,0.0005281,GSO
25004,ECHOSTAR 3,1997,1456.37,-1.0,-,8.47,Inactive,0,GSO,USA,USA,Unknown,Unknown,Unknown,1 25004U 97059A   25081.18391830 -.00000164  00000+0  00000+0 0  9990,2 25004   8.4667  60.0792 0015800 326.9499 221.3769  0.98875990100134,0.9887599,0.00158,GSO
25010,APSTAR-2R (TELSTAR 10),1997,1451.5,-1.0,-,9.75,Inactive,0,GSO,PRC,China,Unknown,Unknown,Unknown,1 25010U 97062A   25081.48030703  .00000095  00000+0  00000+0 0  9995,2 25010   9.7550  51.7641 0011678 282.9599  77.9921  0.99207649100054,0.99207649,0.0011678,GSO
25023,MAQSAT H,1997,463.32,-1.0,UNK,7.63,Inactive,0,MEO,French Guiana,ESA,Unknown,Unknown,Unknown,1 25023U 97066A   25081.50528271  .00000042  00000+0  20607-3 0  9999,2 25023   7.6271 230.1854 6489827  21.5219   7.2536  3.10798336309852,3.10798336,0.6489827,MEO
25024,MAQSAT B,1997,466.12,-1.0,UNK,7.66,Inactive,0,MEO,French Guiana,ESA,Unknown,Unknown,Unknown,1 25024U 97066B   25080.93239130  .00000055  00000+0  34421-3 0  9992,2 25024   7.6607 234.5513 6510589  11.7168 204.0904  3.08931511309059,3.08931511,0.6510589,MEO
25025,TEAMSAT,1997,467.52,-1.0,-,7.83,Inactive,0,MEO,French Guiana,ESA,Unknown,Unknown,Unknown,1 25025U 97066C   25079.95278197 -.00000066  00000+0  40150-4 0  9999,2 25025   7.8347 268.5152 6513989 304.1359 289.4005  3.08007069121229,3.08007069,0.6513989,MEO
8645,COSMOS 800,1976,104.94,-1.0,UNK,82.97,Inactive,0,LEO,Russia,Russia/USSR,Unknown,Unknown,Unknown,1 08645U 76011A   25081.57315451  .00000121  00000+0  11636-3 0  9998,2 08645  82.9677  88.1642 0021946 151.9299 327.6892 13.72156809459705,13.72156809,0.0021946,LEO
16849,COSMOS 1761,1986,717.05,-1.0,UNK,70.1,Inactive,0,MEO,Russia,Russia/USSR,Unknown,Unknown,Unknown,1 16849U 86050A   25081.60854422 -.00000355  00000+0  00000+0 0  9996,2 16849  70.0990  67.5959 5764449  16.2444 129.1974  2.00823103283539,2.00823103,0.5764449,MEO
25042,IRIDIUM 39,1997,99.38,-1.0,-,86.39,Inactive,0,LEO,USA,USA,Unknown,Unknown,Unknown,1 25042U 97069D   25081.53983370  .00002697  00000+0  70508-3 0  9994,2 25042  86.3872 248.2669 0016290 232.1361 127.8370 14.49019799436411,14.49019799,0.001629,LEO
25043,IRIDIUM 38,1997,100.14,-1.0,-,86.39,Inactive,0,LEO,USA,USA,Unknown,Unknown,Unknown,1 25043U 97069E   25081.53947239  .00001462  00000+0  47745-3 0  9995,2 25043  86.3897 269.6217 0003335  57.2253 302.9266 14.37985805433501,14.37985805,0.0003335,LEO
25045,KUPON,1997,1436.13,-1.0,UNK,14.59,Inactive,0,GSO,Kazakhstan,Russia/USSR,Unknown,Unknown,Unknown,1 25045U 97070A   25079.33966349  .00000048  00000+0  00000+0 0  9995,2 25045  14.5895 358.0728 0003466 294.8396  65.1170  1.00269732100149,1.00269732,0.0003466,GSO
25049,ASTRA 5A (SIRIUS 2),1997,1448.58,-1.0,-,11.24,Inactive,0,GSO,French Guiana,Sweden,Unknown,Unknown,Unknown,1 25049U 97071A   25081.64494436 -.00000073  00000+0  00000+0 0  9999,2 25049  11.2429  37.3851 0002083 343.8794 217.1046  0.99407868 99717,0.99407868,0.0002083,GSO
25050,INDOSTAR 1,1997,1436.81,-1.0,-,12.44,Inactive,0,GSO,French Guiana,Indonesia,Unknown,Unknown,Unknown,1 25050U 97071B   25080.77664694 -.00000347  00000+0  00000+0 0  9993,2 25050  12.4447  23.2803 0003062 303.7977 241.0157  1.00221792100264,1.00221792,0.0003062,GSO
16860,COSMOS 1763,1986,100.06,-1.0,UNK,74.03,Inactive,0,LEO,Russia,Russia/USSR,Unknown,Unknown,Unknown,1 16860U 86052A   25081.90238062  .00000626  00000+0  20991-3 0  9995,2 16860  74.0337 319.4098 0029587  76.8909 283.5545 14.39092369 29167,14.39092369,0.0029587,LEO
25067,JCSAT-1B,1997,1459.63,-1.0,-,10.67,Inactive,0,GSO,French Guiana,Japan,Unknown,Unknown,Unknown,1 25067U 97075A   25081.27961642 -.00000199  00000+0  00000+0 0  9999,2 25067  10.6753  43.0022 0017295 179.9059  19.0932  0.98655205102376,0.98655205,0.0017295,GSO
25068,EQUATOR S,1997,1336.12,-1.0,UNK,6.51,Inactive,0,MEO,French Guiana,Germany,Unknown,Unknown,Unknown,1 25068U 97075B   25079.52340297 -.00000491  00000+0 -55593-2 0  9998,2 25068   6.5070 307.9908 8226863 224.0850  28.6251  1.07774723107575,1.07774723,0.8226863,MEO
25071,ASTRA 1G,1997,1453.98,3379.0,-,8.46,Inactive,1,GSO,Kazakhstan,SES,Commercial,Communications,Proton,1 25071U 97076A   25081.11663975 -.00000043  00000+0  00000+0 0  9994,2 25071   8.4582  59.0888 0005326 158.1885  27.7541  0.99038820 99894,0.9903882,0.0005326,GSO
8688,COSMOS 803,1976,92.72,-1.0,UNK,65.84,Inactive,0,LEO,Russia,Russia/USSR,Unknown,Unknown,Unknown,1 08688U 76014A   25081.31158401  .00022804  00000+0  36343-3 0  9994,2 08688  65.8406  36.0605 0019265 302.9204  57.0095 15.53028570721455,15.5302857,0.0019265,LEO
41456,SENTINEL-1B,2016,96.28,2300.0,-,98.15,Inactive,1,LEO,French Guiana,ESA,Government,Earth Observation,Soyuz,1 41456U 16025A   25081.87979071  .00012781  00000+0  11515-2 0  9991,2 41456  98.1544 119.6192 0016955 185.0749 175.0302 14.95620535476232,14.95620535,0.0016955,LEO
41457,MICROSCOPE,2016,98.74,-1.0,-,98.26,Inactive,0,LEO,French Guiana,France,Unknown,Unknown,Unknown,1 41457U 16025B   25081.58688850  .00004117  00000+0  89852-3 0  9996,2 41457  98.2561  92.1058 0001719 108.0218 252.1169 14.58373480472874,14.5837348,0.0001719,LEO
16881,COSMOS 1766,1986,93.79,-1.0,UNK,82.49,Inactive,0,LEO,Russia,Russia/USSR,Unknown,Unknown,Unknown,1 16881U 86055A   25081.52963771  .00032066  00000+0  93041-3 0  9990,2 16881  82.4929 111.2478 0010084  26.2975 333.8778 15.35314156 89334,15.35314156,0.0010084,LEO
25077,IRIDIUM 42,1997,100.26,-1.0,-,86.39,Inactive,0,LEO,PRC,USA,Unknown,Unknown,Unknown,1 25077U 97077A   25081.57884319  .00001312  00000+0  44309-3 0  9991,2 25077  86.3901 275.6747 0002612  77.1333 283.0156 14.36231410428760,14.3623141,0.0002612,LEO
25078,IRIDIUM 44,1997,99.99,-1.0,-,86.39,Inactive,0,LEO,PRC,USA,Unknown,Unknown,Unknown,1 25078U 97077B   25081.76698636  .00001620  00000+0  50740-3 0  9996,2 25078  86.3907 257.7281 0001447  29.7445 330.3836 14.40116376431294,14.40116376,0.0001447,LEO
33272,COSMOS 2441,2008,99.11,-1.0,UNK,98.28,Inactive,0,LEO,Russia,Russia/USSR,Unknown,Unknown,Unknown,1 33272U 08037A   25081.79780611  .00000838  00000+0  21421-3 0  9991,2 33272  98.2764  28.0320 0015009 290.0909  69.8672 14.52902112882513,14.52902112,0.0015009,LEO
